NORAD_CAT_ID,OBJECT_NAME,OBJECT_TYPE,EPOCH,MEAN_MOTION,ECCENTRICITY,INCLINATION,RA_OF_ASC_NODE,ARG_OF_PERICENTER,MEAN_ANOMALY,BSTAR,MEAN_MOTION_DOT,MEAN_MOTION_DDOT,TLE_LINE0,TLE_LINE1,TLE_LINE2,SEMIMAJOR_AXIS,PERIOD,APOGEE,PERIGEE,DECAYED
51135.0,STARLINK-3363,PAYLOAD,2022-10-12 06:36:29,15.08842413,0.0001434,53.217,125.5275,47.207,312.9043,0.00022436,3.285e-05,0.0,0 STARLINK-3363,1 51135U 22005AH  22285.27534277  .00003285  00000-0  22436-3 0  9998,2 51135  53.2170 125.5275 0001434  47.2070 312.9043 15.08842413 41984,6917.873000000001,95.437,540.73,538.746,0.0
51135.0,STARLINK-3363,PAYLOAD,2022-10-12 12:58:02,15.08840465,0.0001644,53.2158,124.3385,56.7665,303.3484,0.0002645,3.924e-05,0.0,0 STARLINK-3363,1 51135U 22005AH  22285.54030152  .00003924  00000-0  26450-3 0  9991,2 51135  53.2158 124.3385 0001644  56.7665 303.3484 15.08840465 40906,6917.879,95.438,540.881,538.607,0.0
51135.0,STARLINK-3363,PAYLOAD,2022-10-12 22:30:23,15.08771916,0.0001885999999999,53.2174,122.555,56.5706,303.5466,0.0011412,0.00017887,0.0,0 STARLINK-3363,1 51135U 22005AH  22285.93776796  .00017887  00000-0  11412-2 0  9999,2 51135  53.2174 122.5550 0001886  56.5706 303.5466 15.08771916 42087,6918.089,95.442,541.258,538.649,0.0
51135.0,STARLINK-3363,PAYLOAD,2022-10-13 12:48:50,15.08825447,0.0001764,53.2174,119.8785,62.1081,298.009,0.00044227,6.755e-05,0.0,0 STARLINK-3363,1 51135U 22005AH  22286.53391467  .00006755  00000-0  44227-3 0  9997,2 51135  53.2174 119.8785 0001764  62.1081 298.0090 15.08825447 42170,6917.925,95.438,541.01,538.57,0.0
51135.0,STARLINK-3363,PAYLOAD,2022-10-13 19:10:22,15.08846397,0.0001709,53.2175,118.6887,57.9444,302.1714,3.834e-05,3.22e-06,0.0,0 STARLINK-3363,1 51135U 22005AH  22286.79886581  .00000322  00000-0  38340-4 0  9995,2 51135  53.2175 118.6887 0001709  57.9444 302.1714 15.08846397 42217,6917.861,95.437,540.908,538.544,0.0
51135.0,STARLINK-3363,PAYLOAD,2022-10-14 01:31:54,15.08849755,0.0001664,53.2171,117.4987,58.1848,301.9306,5.447300000000001e-05,5.79e-06,0.0,0 STARLINK-3363,1 51135U 22005AH  22287.06382153  .00000579  00000-0  54473-4 0  9991,2 51135  53.2171 117.4987 0001664  58.1848 301.9306 15.08849755 41137,6917.851,95.437,540.867,538.564,0.0
51135.0,STARLINK-3363,PAYLOAD,2022-10-14 19:01:08,15.0884492,0.0001633,53.2168,114.2273,56.758,303.3568,2.8329e-05,1.63e-06,0.0,0 STARLINK-3363,1 51135U 22005AH  22287.79246041  .00000163  00000-0  28329-4 0  9996,2 51135  53.2168 114.2273 0001633  56.7580 303.3568 15.08844920 41246,6917.865,95.437,540.86,538.601,0.0
51135.0,STARLINK-3363,PAYLOAD,2022-10-14 22:11:54,15.08847843,0.00016,53.2166,113.6324,55.1421,304.9722,4.4809e-05,4.25e-06,0.0,0 STARLINK-3363,1 51135U 22005AH  22287.92493752  .00000425  00000-0  44809-4 0  9996,2 51135  53.2166 113.6324 0001600  55.1421 304.9722 15.08847843 42387,6917.856,95.437,540.828,538.615,0.0
51135.0,STARLINK-3363,PAYLOAD,2022-10-15 06:08:49,15.08853779,0.0001686,53.2166,112.146,54.5865,305.5285,5.6975e-05,6.19e-06,0.0,0 STARLINK-3363,1 51135U 22005AH  22288.25613105  .00000619  00000-0  56975-4 0  9991,2 51135  53.2166 112.1460 0001686  54.5865 305.5285 15.08853779 41319,6917.8380000000025,95.437,540.87,538.5369999999998,0.0
51135.0,STARLINK-3363,PAYLOAD,2022-10-15 17:16:32,15.08843458,0.0001679,53.2165,110.0639,64.4532,295.6634,3.5945e-05,2.84e-06,0.0,0 STARLINK-3363,1 51135U 22005AH  22288.71981558  .00000284  00000-0  35945-4 0  9994,2 51135  53.2165 110.0639 0001679  64.4532 295.6634 15.08843458 41383,6917.87,95.437,540.896,538.573,0.0
51135.0,STARLINK-3363,PAYLOAD,2022-10-15 22:02:41,15.08842769,0.0001761999999999,53.2172,109.1728,58.5656,301.5508,3.2165e-05,2.24e-06,0.0,0 STARLINK-3363,1 51135U 22005AH  22288.91853653  .00000224  00000-0  32165-4 0  9995,2 51135  53.2172 109.1728 0001762  58.5656 301.5508 15.08842769 42532,6917.871999999999,95.437,540.956,538.518,0.0
51135.0,STARLINK-3363,PAYLOAD,2022-10-16 12:21:10,15.08831165,0.0001656,53.2173,106.4963,57.76,302.3553,-6.8201e-05,-1.373e-05,0.0,0 STARLINK-3363,1 51135U 22005AH  22289.51470601 -.00001373  00000-0 -68201-4 0  9998,2 51135  53.2173 106.4963 0001656  57.7600 302.3553 15.08831165 42623,6917.906999999997,95.438,540.918,538.627,0.0
51135.0,STARLINK-3363,PAYLOAD,2022-10-16 17:07:19,15.08835305,0.0001839,53.2165,105.6045,56.8819,303.235,-1.4081e-05,-5.12e-06,0.0,0 STARLINK-3363,1 51135U 22005AH  22289.71342248 -.00000512  00000-0 -14081-4 0  9996,2 51135  53.2165 105.6045 0001839  56.8819 303.2350 15.08835305 41535,6917.895,95.438,541.0319999999998,538.488,0.0
51135.0,STARLINK-3363,PAYLOAD,2022-10-17 04:15:01,15.08843509,0.000174,53.2167,103.5225,53.7348,306.3804,3.978e-06,-2.25e-06,0.0,0 STARLINK-3363,1 51135U 22005AH  22290.17709717 -.00000225  00000-0  39780-5 0  9990,2 51135  53.2167 103.5225 0001740  53.7348 306.3804 15.08843509 42723,6917.87,95.437,540.938,538.531,0.0
51135.0,STARLINK-3363,PAYLOAD,2022-10-17 12:11:56,15.08843486,0.000164,53.2165,102.0351,55.9191,304.1956,7.9119e-05,9.71e-06,0.0,0 STARLINK-3363,1 51135U 22005AH  22290.50829374  .00000971  00000-0  79119-4 0  9995,2 51135  53.2165 102.0351 0001640  55.9191 304.1956 15.08843486 41653,6917.87,95.437,540.869,538.6,0.0
51135.0,STARLINK-3363,PAYLOAD,2022-10-17 18:33:29,15.08836323,0.0001496999999999,53.2166,100.8453,54.9144,305.1989,1.2623e-05,-8.7e-07,0.0,0 STARLINK-3363,1 51135U 22005AH  22290.77326064 -.00000087  00000-0  12623-4 0  9998,2 51135  53.2166 100.8453 0001497  54.9144 305.1989 15.08836323 41693,6917.892,95.438,540.7919999999998,538.721,0.0
51135.0,STARLINK-3363,PAYLOAD,2022-10-18 10:27:20,15.0884893,0.0001536,53.2168,97.8714,48.2307,311.8816,-0.00013657,-2.461e-05,0.0,0 STARLINK-3363,1 51135U 22005AH  22291.43565677 -.00002461  00000-0 -13657-3 0  9993,2 51135  53.2168  97.8714 0001536  48.2307 311.8816 15.08848930 42917,6917.853,95.437,540.781,538.656,0.0
51135.0,STARLINK-3363,PAYLOAD,2022-10-18 18:24:16,15.08838577,0.000156,53.2167,96.3848,48.5013,311.6113,7.2247e-05,8.62e-06,0.0,0 STARLINK-3363,1 51135U 22005AH  22291.76686123  .00000862  00000-0  72247-4 0  9991,2 51135  53.2167  96.3848 0001560  48.5013 311.6113 15.08838577 41847,6917.885,95.438,540.8290000000002,538.6709999999998,0.0
51135.0,STARLINK-3363,PAYLOAD,2022-10-19 03:56:36,15.08831328,0.0001486,53.2165,94.6015,48.6379,311.4741,-1.9431e-05,-5.97e-06,0.0,0 STARLINK-3363,1 51135U 22005AH  22292.16430962 -.00000597  00000-0 -19431-4 0  9997,2 51135  53.2165  94.6015 0001486  48.6379 311.4741 15.08831328 43029,6917.906999999997,95.438,540.8,538.744,0.0
51135.0,STARLINK-3363,PAYLOAD,2022-10-19 10:18:08,15.08832876,0.0001811999999999,53.217,93.4118,48.8599,311.2549,-2.268e-05,-6.49e-06,0.0,0 STARLINK-3363,1 51135U 22005AH  22292.42927077 -.00000649  00000-0 -22680-4 0  9992,2 51135  53.2170  93.4118 0001812  48.8599 311.2549 15.08832876 41947,6917.901999999999,95.438,541.021,538.514,0.0
51135.0,STARLINK-3363,PAYLOAD,2022-10-19 19:50:27,15.08839592,0.0001713,53.2169,91.6276,48.2711,311.8427,3.4665e-05,2.64e-06,0.0,0 STARLINK-3363,1 51135U 22005AH  22292.82670518  .00000264  00000-0  34665-4 0  9998,2 51135  53.2169  91.6276 0001713  48.2711 311.8427 15.08839592 43125,6917.882,95.438,540.932,538.562,0.0
51135.0,STARLINK-3363,PAYLOAD,2022-10-20 19:41:13,15.08867938,0.0001823,53.217,87.1669,54.5762,305.5401,-0.00020443,-3.543e-05,0.0,0 STARLINK-3363,1 51135U 22005AH  22293.82029230 -.00003543  00000-0 -20443-3 0  9991,2 51135  53.2170  87.1669 0001823  54.5762 305.5401 15.08867938 42150,6917.795,95.436,540.9209999999998,538.399,0.0
51135.0,STARLINK-3363,PAYLOAD,2022-10-20 22:52:00,15.08834355,0.0002109999999999,53.2172,86.5723,47.3273,312.7896,9.9416e-05,1.294e-05,0.0,0 STARLINK-3363,1 51135U 22005AH  22293.95278693  .00001294  00000-0  99416-4 0  9990,2 51135  53.2172  86.5723 0002110  47.3273 312.7896 15.08834355 43294,6917.898,95.438,541.222,538.303,0.0
51135.0,STARLINK-3363,PAYLOAD,2022-10-21 09:59:42,15.08835251,0.0001623,53.2168,84.4901,52.4779,307.6361,7.4035e-05,8.900000000000001e-06,0.0,0 STARLINK-3363,1 51135U 22005AH  22294.41646663  .00000890  00000-0  74035-4 0  9999,2 51135  53.2168  84.4901 0001623  52.4779 307.6361 15.08835251 42240,6917.895,95.438,540.883,538.637,0.0
51135.0,STARLINK-3363,PAYLOAD,2022-10-21 16:21:14,15.08861769,0.0001936,53.2173,83.3003,51.7796,308.337,-0.00017881,-3.135e-05,0.0,0 STARLINK-3363,1 51135U 22005AH  22294.68141485 -.00003135  00000-0 -17881-3 0  9992,2 51135  53.2173  83.3003 0001936  51.7796 308.3370 15.08861769 42280,6917.814,95.436,541.018,538.34,0.0
51135.0,STARLINK-3363,PAYLOAD,2022-10-22 09:50:28,15.08843239,0.0001661,53.2178,80.0301,56.3626,303.7524,9.8285e-05,1.277e-05,0.0,0 STARLINK-3363,1 51135U 22005AH  22295.41005562  .00001277  00000-0  98285-4 0  9990,2 51135  53.2178  80.0301 0001661  56.3626 303.7524 15.08843239 43517,6917.87,95.437,540.885,538.586,0.0
51135.0,STARLINK-3363,PAYLOAD,2022-10-22 13:01:15,15.08841601,0.0001766999999999,53.2177,79.4362,51.3746,308.7404,7.274e-05,8.7e-06,0.0,0 STARLINK-3363,1 51135U 22005AH  22295.54253740  .00000870  00000-0  72740-4 0  9993,2 51135  53.2177  79.4362 0001767  51.3746 308.7404 15.08841601 42411,6917.875,95.437,540.9630000000002,538.518,0.0
51135.0,STARLINK-3363,PAYLOAD,2022-10-22 19:22:47,15.08845439,0.0001829,53.2173,78.2464,51.0423,309.0731,0.00010404,1.368e-05,0.0,0 STARLINK-3363,1 51135U 22005AH  22295.80749406  .00001368  00000-0  10404-3 0  9992,2 51135  53.2173  78.2464 0001829  51.0423 309.0731 15.08845439 42459,6917.864000000001,95.437,540.994,538.4630000000002,0.0
51135.0,STARLINK-3363,PAYLOAD,2022-10-23 11:16:38,15.08848553,0.0001851999999999,53.2174,75.273,51.6415,308.4744,0.00010574,1.396e-05,0.0,0 STARLINK-3363,1 51135U 22005AH  22296.46988949  .00001396  00000-0  10574-3 0  9991,2 51135  53.2174  75.2730 0001852  51.6415 308.4744 15.08848553 43678,6917.854,95.437,541.0,538.438,0.0
